DRAGONFLY               
1 65729U 98067XH  26017.53560201  .00453216  89651-4  13829-2 0  9996
2 65729  51.6196 310.2280 0007881 130.8579 229.3112 15.91355384 18825
1998-067XK              
1 65731U 98067XK  26017.19323472  .00157519  00000+0  10503-2 0  9997
2 65731  51.6278 316.2729 0004723  95.6266 264.5271 15.74350124 18719
RSP-03                  
1 65732U 98067XL  26017.09807185  .00238635  00000+0  11701-2 0  9995
2 65732  51.6249 314.8549 0005774 106.9555 253.2080 15.80991207 18731
GHS-01                  
1 65733U 98067XM  26017.52429972  .01426401  13478-2  16122-2 0  9997
2 65733  51.6197 307.8791 0007705 155.4523 204.6858 16.08836766 18861
YOTSUBA-KULOVER         
1 65941U 98067XN  26017.21565863  .00095770  00000+0  94243-3 0  9999
2 65941  51.6289 320.9370 0004200 116.9573 243.1852 15.65198951 15405
BOTAN                   
1 65942U 98067XP  26017.55065803  .00162892  00000+0  11741-2 0  9997
2 65942  51.6265 317.1607 0004948 119.8068 240.3423 15.72510455 15487
E-KAGAKU-1              
1 65943U 98067XQ  26017.53482520  .00085105  00000+0  83821-3 0  9995
2 65943  51.6302 319.3260 0002768 121.2379 238.8888 15.65233024 15459
HRC MONOBLOCK CAMERA    
1 66052U 98067XR  26017.56470221  .00037317  00000+0  51449-3 0  9998
2 66052  51.6311 322.5195 0001027  14.9522 345.1500 15.56837537 14416
HTV-X1                  
1 66174U 25241A   26017.53064126  .00012765  00000+0  23638-3 0  9996
2 66174  51.6334 325.2886 0007793  28.8014 331.3404 15.49353150   511
SZ-21 MODULE            
1 66515U 25246C   26017.43644035  .00032342  00000+0  32679-3 0  9990
2 66515  41.4746 157.9401 0002482 190.6884 169.3904 15.64628600 10034
SHENZHOU-22             
1 66645U 25272A   26017.43920641  .00019264  00000+0  22918-3 0  9996
2 66645  41.4655 159.7316 0011200 302.9743  57.0018 15.60598009267647
SOYUZ-MS 28             
1 66664U 25275A   26017.53064126  .00012765  00000+0  23638-3 0  9997
2 66664  51.6334 325.2886 0007793  28.8014 331.3404 15.49353150  1280
