CCSDS_OMM_VERS = 2.0
CREATION_DATE  = 
ORIGINATOR     = 

OBJECT_NAME    = DRAGONFLY
OBJECT_ID      = 1998-067XH
CENTER_NAME    = EARTH
REF_FRAME      = TEME
TIME_SYSTEM    = UTC
MEAN_ELEMENT_THEORY = SGP/SGP4

EPOCH          = 2026-01-17T12:51:16.013664
MEAN_MOTION    = 15.91355384
ECCENTRICITY   = .00078819
INCLINATION    = 51.6196
RA_OF_ASC_NODE = 310.2280
ARG_OF_PERICENTER = 130.8579
MEAN_ANOMALY   = 229.3112

EPHEMERIS_TYPE = 0
CLASSIFICATION_TYPE = U
NORAD_CAT_ID   = 65729
ELEMENT_SET_NO = 999
REV_AT_EPOCH   = 1882
BSTAR          = .13829143E-2
MEAN_MOTION_DOT = .453216E-2
MEAN_MOTION_DDOT = .8965148E-4

CCSDS_OMM_VERS = 2.0
CREATION_DATE  = 
ORIGINATOR     = 

OBJECT_NAME    = 1998-067XK
OBJECT_ID      = 1998-067XK
CENTER_NAME    = EARTH
REF_FRAME      = TEME
TIME_SYSTEM    = UTC
MEAN_ELEMENT_THEORY = SGP/SGP4

EPOCH          = 2026-01-17T04:38:15.479808
MEAN_MOTION    = 15.74350124
ECCENTRICITY   = .00047234
INCLINATION    = 51.6278
RA_OF_ASC_NODE = 316.2729
ARG_OF_PERICENTER = 95.6266
MEAN_ANOMALY   = 264.5271

EPHEMERIS_TYPE = 0
CLASSIFICATION_TYPE = U
NORAD_CAT_ID   = 65731
ELEMENT_SET_NO = 999
REV_AT_EPOCH   = 1871
BSTAR          = .10502606E-2
MEAN_MOTION_DOT = .157519E-2
MEAN_MOTION_DDOT = 0

CCSDS_OMM_VERS = 2.0
CREATION_DATE  = 
ORIGINATOR     = 

OBJECT_NAME    = RSP-03
OBJECT_ID      = 1998-067XL
CENTER_NAME    = EARTH
REF_FRAME      = TEME
TIME_SYSTEM    = UTC
MEAN_ELEMENT_THEORY = SGP/SGP4

EPOCH          = 2026-01-17T02:21:13.407840
MEAN_MOTION    = 15.80991207
ECCENTRICITY   = .00057744
INCLINATION    = 51.6249
RA_OF_ASC_NODE = 314.8549
ARG_OF_PERICENTER = 106.9555
MEAN_ANOMALY   = 253.2080

EPHEMERIS_TYPE = 0
CLASSIFICATION_TYPE = U
NORAD_CAT_ID   = 65732
ELEMENT_SET_NO = 999
REV_AT_EPOCH   = 1873
BSTAR          = .11700696E-2
MEAN_MOTION_DOT = .238635E-2
MEAN_MOTION_DDOT = 0

CCSDS_OMM_VERS = 2.0
CREATION_DATE  = 
ORIGINATOR     = 

OBJECT_NAME    = GHS-01
OBJECT_ID      = 1998-067XM
CENTER_NAME    = EARTH
REF_FRAME      = TEME
TIME_SYSTEM    = UTC
MEAN_ELEMENT_THEORY = SGP/SGP4

EPOCH          = 2026-01-17T12:34:59.495808
MEAN_MOTION    = 16.08836766
ECCENTRICITY   = .00077051
INCLINATION    = 51.6197
RA_OF_ASC_NODE = 307.8791
ARG_OF_PERICENTER = 155.4523
MEAN_ANOMALY   = 204.6858

EPHEMERIS_TYPE = 0
CLASSIFICATION_TYPE = U
NORAD_CAT_ID   = 65733
ELEMENT_SET_NO = 999
REV_AT_EPOCH   = 1886
BSTAR          = .16121539E-2
MEAN_MOTION_DOT = .1426401E-1
MEAN_MOTION_DDOT = .13478294E-2

CCSDS_OMM_VERS = 2.0
CREATION_DATE  = 
ORIGINATOR     = 

OBJECT_NAME    = YOTSUBA-KULOVER
OBJECT_ID      = 1998-067XN
CENTER_NAME    = EARTH
REF_FRAME      = TEME
TIME_SYSTEM    = UTC
MEAN_ELEMENT_THEORY = SGP/SGP4

EPOCH          = 2026-01-17T05:10:32.905632
MEAN_MOTION    = 15.65198951
ECCENTRICITY   = .00042003
INCLINATION    = 51.6289
RA_OF_ASC_NODE = 320.9370
ARG_OF_PERICENTER = 116.9573
MEAN_ANOMALY   = 243.1852

EPHEMERIS_TYPE = 0
CLASSIFICATION_TYPE = U
NORAD_CAT_ID   = 65941
ELEMENT_SET_NO = 999
REV_AT_EPOCH   = 1540
BSTAR          = .94242553E-3
MEAN_MOTION_DOT = .9577E-3
MEAN_MOTION_DDOT = 0

CCSDS_OMM_VERS = 2.0
CREATION_DATE  = 
ORIGINATOR     = 

OBJECT_NAME    = BOTAN
OBJECT_ID      = 1998-067XP
CENTER_NAME    = EARTH
REF_FRAME      = TEME
TIME_SYSTEM    = UTC
MEAN_ELEMENT_THEORY = SGP/SGP4

EPOCH          = 2026-01-17T13:12:56.853792
MEAN_MOTION    = 15.72510455
ECCENTRICITY   = .00049483
INCLINATION    = 51.6265
RA_OF_ASC_NODE = 317.1607
ARG_OF_PERICENTER = 119.8068
MEAN_ANOMALY   = 240.3423

EPHEMERIS_TYPE = 0
CLASSIFICATION_TYPE = U
NORAD_CAT_ID   = 65942
ELEMENT_SET_NO = 999
REV_AT_EPOCH   = 1548
BSTAR          = .11741486E-2
MEAN_MOTION_DOT = .162892E-2
MEAN_MOTION_DDOT = 0

CCSDS_OMM_VERS = 2.0
CREATION_DATE  = 
ORIGINATOR     = 

OBJECT_NAME    = E-KAGAKU-1
OBJECT_ID      = 1998-067XQ
CENTER_NAME    = EARTH
REF_FRAME      = TEME
TIME_SYSTEM    = UTC
MEAN_ELEMENT_THEORY = SGP/SGP4

EPOCH          = 2026-01-17T12:50:08.897280
MEAN_MOTION    = 15.65233024
ECCENTRICITY   = .0002768
INCLINATION    = 51.6302
RA_OF_ASC_NODE = 319.3260
ARG_OF_PERICENTER = 121.2379
MEAN_ANOMALY   = 238.8888

EPHEMERIS_TYPE = 0
CLASSIFICATION_TYPE = U
NORAD_CAT_ID   = 65943
ELEMENT_SET_NO = 999
REV_AT_EPOCH   = 1545
BSTAR          = .8382087E-3
MEAN_MOTION_DOT = .85105E-3
MEAN_MOTION_DDOT = 0

CCSDS_OMM_VERS = 2.0
CREATION_DATE  = 
ORIGINATOR     = 

OBJECT_NAME    = HRC MONOBLOCK CAMERA
OBJECT_ID      = 1998-067XR
CENTER_NAME    = EARTH
REF_FRAME      = TEME
TIME_SYSTEM    = UTC
MEAN_ELEMENT_THEORY = SGP/SGP4

EPOCH          = 2026-01-17T13:33:10.270944
MEAN_MOTION    = 15.56837537
ECCENTRICITY   = .00010271
INCLINATION    = 51.6311
RA_OF_ASC_NODE = 322.5195
ARG_OF_PERICENTER = 14.9522
MEAN_ANOMALY   = 345.1500

EPHEMERIS_TYPE = 0
CLASSIFICATION_TYPE = U
NORAD_CAT_ID   = 66052
ELEMENT_SET_NO = 999
REV_AT_EPOCH   = 1441
BSTAR          = .5144917E-3
MEAN_MOTION_DOT = .37317E-3
MEAN_MOTION_DDOT = 0

CCSDS_OMM_VERS = 2.0
CREATION_DATE  = 
ORIGINATOR     = 

OBJECT_NAME    = HTV-X1
OBJECT_ID      = 2025-241A
CENTER_NAME    = EARTH
REF_FRAME      = TEME
TIME_SYSTEM    = UTC
MEAN_ELEMENT_THEORY = SGP/SGP4

EPOCH          = 2026-01-17T12:44:07.404864
MEAN_MOTION    = 15.49353150
ECCENTRICITY   = .00077933
INCLINATION    = 51.6334
RA_OF_ASC_NODE = 325.2886
ARG_OF_PERICENTER = 28.8014
MEAN_ANOMALY   = 331.3404

EPHEMERIS_TYPE = 0
CLASSIFICATION_TYPE = U
NORAD_CAT_ID   = 66174
ELEMENT_SET_NO = 999
REV_AT_EPOCH   = 51
BSTAR          = .23638301E-3
MEAN_MOTION_DOT = .12765E-3
MEAN_MOTION_DDOT = 0

CCSDS_OMM_VERS = 2.0
CREATION_DATE  = 
ORIGINATOR     = 

OBJECT_NAME    = SZ-21 MODULE
OBJECT_ID      = 2025-246C
CENTER_NAME    = EARTH
REF_FRAME      = TEME
TIME_SYSTEM    = UTC
MEAN_ELEMENT_THEORY = SGP/SGP4

EPOCH          = 2026-01-17T10:28:28.446240
MEAN_MOTION    = 15.64628600
ECCENTRICITY   = .0002482
INCLINATION    = 41.4746
RA_OF_ASC_NODE = 157.9401
ARG_OF_PERICENTER = 190.6884
MEAN_ANOMALY   = 169.3904

EPHEMERIS_TYPE = 0
CLASSIFICATION_TYPE = U
NORAD_CAT_ID   = 66515
ELEMENT_SET_NO = 999
REV_AT_EPOCH   = 1003
BSTAR          = .32679476E-3
MEAN_MOTION_DOT = .32342E-3
MEAN_MOTION_DDOT = 0

CCSDS_OMM_VERS = 2.0
CREATION_DATE  = 
ORIGINATOR     = 

OBJECT_NAME    = SHENZHOU-22
OBJECT_ID      = 2025-272A
CENTER_NAME    = EARTH
REF_FRAME      = TEME
TIME_SYSTEM    = UTC
MEAN_ELEMENT_THEORY = SGP/SGP4

EPOCH          = 2026-01-17T10:32:27.433824
MEAN_MOTION    = 15.60598009
ECCENTRICITY   = .00112
INCLINATION    = 41.4655
RA_OF_ASC_NODE = 159.7316
ARG_OF_PERICENTER = 302.9743
MEAN_ANOMALY   = 57.0018

EPHEMERIS_TYPE = 0
CLASSIFICATION_TYPE = U
NORAD_CAT_ID   = 66645
ELEMENT_SET_NO = 999
REV_AT_EPOCH   = 26764
BSTAR          = .22917576E-3
MEAN_MOTION_DOT = .19264E-3
MEAN_MOTION_DDOT = 0

CCSDS_OMM_VERS = 2.0
CREATION_DATE  = 
ORIGINATOR     = 

OBJECT_NAME    = SOYUZ-MS 28
OBJECT_ID      = 2025-275A
CENTER_NAME    = EARTH
REF_FRAME      = TEME
TIME_SYSTEM    = UTC
MEAN_ELEMENT_THEORY = SGP/SGP4

EPOCH          = 2026-01-17T12:44:07.404864
MEAN_MOTION    = 15.49353150
ECCENTRICITY   = .00077933
INCLINATION    = 51.6334
RA_OF_ASC_NODE = 325.2886
ARG_OF_PERICENTER = 28.8014
MEAN_ANOMALY   = 331.3404

EPHEMERIS_TYPE = 0
CLASSIFICATION_TYPE = U
NORAD_CAT_ID   = 66664
ELEMENT_SET_NO = 999
REV_AT_EPOCH   = 128
BSTAR          = .23638301E-3
MEAN_MOTION_DOT = .12765E-3
MEAN_MOTION_DDOT = 0

